[{"OBJECT_NAME":"LIZZIESAT-3 (LS-3)","OBJECT_ID":"2025-052Z","EPOCH":"2026-03-09T23:14:46.856832","MEAN_MOTION":15.20716998,"ECCENTRICITY":0.00070924,"INCLINATION":97.4033,"RA_OF_ASC_NODE":322.5624,"ARG_OF_PERICENTER":136.4425,"MEAN_ANOMALY":223.7371,"EPHEMERIS_TYPE":0,"CLASSIFICATION_TYPE":"U","NORAD_CAT_ID":63233,"ELEMENT_SET_NO":999,"REV_AT_EPOCH":5472,"BSTAR":0.00032646441,"MEAN_MOTION_DOT":7.117e-5,"MEAN_MOTION_DDOT":0},{"OBJECT_NAME":"STARCLOUD-1","OBJECT_ID":"2025-248L","EPOCH":"2026-03-08T23:33:20.923488","MEAN_MOTION":15.20134222,"ECCENTRICITY":0.00060214,"INCLINATION":45.402,"RA_OF_ASC_NODE":297.8511,"ARG_OF_PERICENTER":202.4241,"MEAN_ANOMALY":157.6383,"EPHEMERIS_TYPE":0,"CLASSIFICATION_TYPE":"U","NORAD_CAT_ID":66303,"ELEMENT_SET_NO":999,"REV_AT_EPOCH":1928,"BSTAR":0.00040463937,"MEAN_MOTION_DOT":8.636e-5,"MEAN_MOTION_DDOT":0}]
